[{"OBJECT_NAME":"SL-12 R/B(2)","OBJECT_ID":"2008-033D","EPOCH":"2026-04-25T20:44:30.274656","MEAN_MOTION":1.00287358,"ECCENTRICITY":0.00316796,"INCLINATION":10.4647,"RA_OF_ASC_NODE":41.6602,"ARG_OF_PERICENTER":337.9075,"MEAN_ANOMALY":206.1266,"EPHEMERIS_TYPE":0,"CLASSIFICATION_TYPE":"U","NORAD_CAT_ID":33111,"ELEMENT_SET_NO":999,"REV_AT_EPOCH":6528,"BSTAR":0,"MEAN_MOTION_DOT":1.8e-7,"MEAN_MOTION_DDOT":0},{"OBJECT_NAME":"INTELSAT 25 (IS-25)","OBJECT_ID":"2008-034A","EPOCH":"2026-04-23T01:58:38.717184","MEAN_MOTION":0.99965107,"ECCENTRICITY":0.00021655,"INCLINATION":2.567,"RA_OF_ASC_NODE":80.9425,"ARG_OF_PERICENTER":274.6153,"MEAN_ANOMALY":207.906,"EPHEMERIS_TYPE":0,"CLASSIFICATION_TYPE":"U","NORAD_CAT_ID":33153,"ELEMENT_SET_NO":999,"REV_AT_EPOCH":6514,"BSTAR":0,"MEAN_MOTION_DOT":-2.78e-6,"MEAN_MOTION_DDOT":0},{"OBJECT_NAME":"ECHOSTAR 11","OBJECT_ID":"2008-035A","EPOCH":"2026-04-26T12:03:38.628288","MEAN_MOTION":1.00271191,"ECCENTRICITY":0.0002449,"INCLINATION":0.873,"RA_OF_ASC_NODE":84.6753,"ARG_OF_PERICENTER":294.8803,"MEAN_ANOMALY":266.0614,"EPHEMERIS_TYPE":0,"CLASSIFICATION_TYPE":"U","NORAD_CAT_ID":33207,"ELEMENT_SET_NO":999,"REV_AT_EPOCH":5069,"BSTAR":0,"MEAN_MOTION_DOT":-6.9e-7,"MEAN_MOTION_DDOT":0},{"OBJECT_NAME":"SUPERBIRD-C2","OBJECT_ID":"2008-038A","EPOCH":"2026-04-26T12:34:51.915072","MEAN_MOTION":1.00272455,"ECCENTRICITY":0.0004428,"INCLINATION":2.2297,"RA_OF_ASC_NODE":81.8729,"ARG_OF_PERICENTER":1.9298,"MEAN_ANOMALY":95.4554,"EPHEMERIS_TYPE":0,"CLASSIFICATION_TYPE":"U","NORAD_CAT_ID":33274,"ELEMENT_SET_NO":999,"REV_AT_EPOCH":10521,"BSTAR":0,"MEAN_MOTION_DOT":-3.16e-6,"MEAN_MOTION_DDOT":0},{"OBJECT_NAME":"INMARSAT 4-F3","OBJECT_ID":"2008-039A","EPOCH":"2026-04-26T09:40:45.863040","MEAN_MOTION":1.0027143,"ECCENTRICITY":0.0003094,"INCLINATION":4.2507,"RA_OF_ASC_NODE":31.4212,"ARG_OF_PERICENTER":12.9162,"MEAN_ANOMALY":217.2614,"EPHEMERIS_TYPE":0,"CLASSIFICATION_TYPE":"U","NORAD_CAT_ID":33278,"ELEMENT_SET_NO":999,"REV_AT_EPOCH":4602,"BSTAR":0,"MEAN_MOTION_DOT":-1.51e-6,"MEAN_MOTION_DDOT":0},{"OBJECT_NAME":"NIMIQ 4","OBJECT_ID":"2008-044A","EPOCH":"2026-04-26T11:27:59.594976","MEAN_MOTION":1.00271395,"ECCENTRICITY":0.0002222,"INCLINATION":0.0072,"RA_OF_ASC_NODE":275.3348,"ARG_OF_PERICENTER":115.6548,"MEAN_ANOMALY":273.5073,"EPHEMERIS_TYPE":0,"CLASSIFICATION_TYPE":"U","NORAD_CAT_ID":33373,"ELEMENT_SET_NO":999,"REV_AT_EPOCH":6446,"BSTAR":0,"MEAN_MOTION_DOT":-2.33e-6,"MEAN_MOTION_DDOT":0},{"OBJECT_NAME":"GALAXY 19 (G-19)","OBJECT_ID":"2008-045A","EPOCH":"2026-04-26T11:23:45.001824","MEAN_MOTION":1.00271994,"ECCENTRICITY":0.0003296,"INCLINATION":0.0168,"RA_OF_ASC_NODE":246.7452,"ARG_OF_PERICENTER":164.5189,"MEAN_ANOMALY":237.1413,"EPHEMERIS_TYPE":0,"CLASSIFICATION_TYPE":"U","NORAD_CAT_ID":33376,"ELEMENT_SET_NO":999,"REV_AT_EPOCH":6438,"BSTAR":0,"MEAN_MOTION_DOT":-1.51e-6,"MEAN_MOTION_DDOT":0},{"OBJECT_NAME":"ASTRA 1M","OBJECT_ID":"2008-057A","EPOCH":"2026-04-26T11:56:49.330752","MEAN_MOTION":1.00274321,"ECCENTRICITY":0.0003831,"INCLINATION":0.1644,"RA_OF_ASC_NODE":79.4155,"ARG_OF_PERICENTER":1.9345,"MEAN_ANOMALY":331.7599,"EPHEMERIS_TYPE":0,"CLASSIFICATION_TYPE":"U","NORAD_CAT_ID":33436,"ELEMENT_SET_NO":999,"REV_AT_EPOCH":4521,"BSTAR":0,"MEAN_MOTION_DOT":1.09e-6,"MEAN_MOTION_DDOT":0},{"OBJECT_NAME":"FENGYUN 2D DEB","OBJECT_ID":"2006-053D","EPOCH":"2026-04-25T19:59:38.626080","MEAN_MOTION":1.00263124,"ECCENTRICITY":0.00405596,"INCLINATION":11.5723,"RA_OF_ASC_NODE":37.6034,"ARG_OF_PERICENTER":359.5017,"MEAN_ANOMALY":180.5614,"EPHEMERIS_TYPE":0,"CLASSIFICATION_TYPE":"U","NORAD_CAT_ID":33458,"ELEMENT_SET_NO":999,"REV_AT_EPOCH":6485,"BSTAR":0,"MEAN_MOTION_DOT":-6.0e-8,"MEAN_MOTION_DDOT":0},{"OBJECT_NAME":"EUTELSAT HOTBIRD 13C","OBJECT_ID":"2008-065A","EPOCH":"2026-04-26T11:36:58.735296","MEAN_MOTION":1.0027012,"ECCENTRICITY":0.0004193,"INCLINATION":2.8196,"RA_OF_ASC_NODE":79.7733,"ARG_OF_PERICENTER":320.789,"MEAN_ANOMALY":297.8849,"EPHEMERIS_TYPE":0,"CLASSIFICATION_TYPE":"U","NORAD_CAT_ID":33459,"ELEMENT_SET_NO":999,"REV_AT_EPOCH":4682,"BSTAR":0,"MEAN_MOTION_DOT":-2.92e-6,"MEAN_MOTION_DDOT":0},{"OBJECT_NAME":"EXPRESS-AM44","OBJECT_ID":"2009-007A","EPOCH":"2026-04-26T10:05:29.332032","MEAN_MOTION":1.00271432,"ECCENTRICITY":0.000413,"INCLINATION":3.3326,"RA_OF_ASC_NODE":79,"ARG_OF_PERICENTER":314.0913,"MEAN_ANOMALY":321.7099,"EPHEMERIS_TYPE":0,"CLASSIFICATION_TYPE":"U","NORAD_CAT_ID":33595,"ELEMENT_SET_NO":999,"REV_AT_EPOCH":5176,"BSTAR":0,"MEAN_MOTION_DOT":-9.9e-7,"MEAN_MOTION_DDOT":0},{"OBJECT_NAME":"NSS-9","OBJECT_ID":"2009-008A","EPOCH":"2026-04-26T11:44:38.729760","MEAN_MOTION":1.00271706,"ECCENTRICITY":0.0002169,"INCLINATION":1.1299,"RA_OF_ASC_NODE":83.0759,"ARG_OF_PERICENTER":295.2143,"MEAN_ANOMALY":195.4212,"EPHEMERIS_TYPE":0,"CLASSIFICATION_TYPE":"U","NORAD_CAT_ID":33749,"ELEMENT_SET_NO":999,"REV_AT_EPOCH":6300,"BSTAR":0,"MEAN_MOTION_DOT":6.0e-7,"MEAN_MOTION_DDOT":0},{"OBJECT_NAME":"TELSTAR 11N","OBJECT_ID":"2009-009A","EPOCH":"2026-04-26T09:58:00.050304","MEAN_MOTION":1.00267929,"ECCENTRICITY":0.0002532,"INCLINATION":0.0125,"RA_OF_ASC_NODE":230.8012,"ARG_OF_PERICENTER":151.8097,"MEAN_ANOMALY":303.7523,"EPHEMERIS_TYPE":0,"CLASSIFICATION_TYPE":"U","NORAD_CAT_ID":34111,"ELEMENT_SET_NO":999,"REV_AT_EPOCH":4572,"BSTAR":0,"MEAN_MOTION_DOT":0,"MEAN_MOTION_DDOT":0},{"OBJECT_NAME":"RADUGA-1 8","OBJECT_ID":"2009-010A","EPOCH":"2026-04-25T01:35:45.619008","MEAN_MOTION":0.99831119,"ECCENTRICITY":0.00108813,"INCLINATION":12.013,"RA_OF_ASC_NODE":42.2069,"ARG_OF_PERICENTER":21.9446,"MEAN_ANOMALY":165.365,"EPHEMERIS_TYPE":0,"CLASSIFICATION_TYPE":"U","NORAD_CAT_ID":34264,"ELEMENT_SET_NO":999,"REV_AT_EPOCH":6264,"BSTAR":0,"MEAN_MOTION_DOT":-1.57e-6,"MEAN_MOTION_DDOT":0},{"OBJECT_NAME":"SL-12 R/B(2)","OBJECT_ID":"2009-010B","EPOCH":"2026-04-26T10:59:52.712736","MEAN_MOTION":0.99994607,"ECCENTRICITY":0.0003669,"INCLINATION":12.0084,"RA_OF_ASC_NODE":42.1332,"ARG_OF_PERICENTER":306.1123,"MEAN_ANOMALY":277.8559,"EPHEMERIS_TYPE":0,"CLASSIFICATION_TYPE":"U","NORAD_CAT_ID":34265,"ELEMENT_SET_NO":999,"REV_AT_EPOCH":6267,"BSTAR":0,"MEAN_MOTION_DOT":-1.8e-7,"MEAN_MOTION_DDOT":0},{"OBJECT_NAME":"WGS F2 (USA 204)","OBJECT_ID":"2009-017A","EPOCH":"2026-04-26T12:07:48.279360","MEAN_MOTION":1.00270752,"ECCENTRICITY":0.0001247,"INCLINATION":0.0124,"RA_OF_ASC_NODE":247.2943,"ARG_OF_PERICENTER":336.8001,"MEAN_ANOMALY":229.8639,"EPHEMERIS_TYPE":0,"CLASSIFICATION_TYPE":"U","NORAD_CAT_ID":34713,"ELEMENT_SET_NO":999,"REV_AT_EPOCH":4510,"BSTAR":0,"MEAN_MOTION_DOT":0,"MEAN_MOTION_DDOT":0},{"OBJECT_NAME":"SES-7 (PROTOSTAR 2)","OBJECT_ID":"2009-027A","EPOCH":"2026-04-26T12:22:16.888800","MEAN_MOTION":1.0027049,"ECCENTRICITY":0.0001723,"INCLINATION":0.0969,"RA_OF_ASC_NODE":79.3708,"ARG_OF_PERICENTER":246.9708,"MEAN_ANOMALY":181.997,"EPHEMERIS_TYPE":0,"CLASSIFICATION_TYPE":"U","NORAD_CAT_ID":34941,"ELEMENT_SET_NO":999,"REV_AT_EPOCH":6211,"BSTAR":0,"MEAN_MOTION_DOT":-3.57e-6,"MEAN_MOTION_DDOT":0}]
