SL-12 R/B(2)            
1 33111U 08033D   26115.86423929  .00000018  00000+0  00000+0 0  9998
2 33111  10.4647  41.6602 0031679 337.9075 206.1266  1.00287358 65280
INTELSAT 25 (IS-25)     
1 33153U 08034A   26113.08239256 -.00000278  00000+0  00000+0 0  9994
2 33153   2.5670  80.9425 0002165 274.6153 207.9060  0.99965107 65143
ECHOSTAR 11             
1 33207U 08035A   26116.50253042 -.00000069  00000+0  00000+0 0  9992
2 33207   0.8730  84.6753 0002449 294.8803 266.0614  1.00271191 50698
SUPERBIRD-C2            
1 33274U 08038A   26116.52421198 -.00000316  00000+0  00000+0 0  9995
2 33274   2.2297  81.8729 0004428   1.9298  95.4554  1.00272455105212
INMARSAT 4-F3           
1 33278U 08039A   26116.40330860 -.00000151  00000+0  00000+0 0  9999
2 33278   4.2507  31.4212 0003094  12.9162 217.2614  1.00271430 46026
NIMIQ 4                 
1 33373U 08044A   26116.47777309 -.00000233  00000+0  00000+0 0  9992
2 33373   0.0072 275.3348 0002222 115.6548 273.5073  1.00271395 64465
GALAXY 19 (G-19)        
1 33376U 08045A   26116.47482641 -.00000151  00000+0  00000+0 0  9997
2 33376   0.0168 246.7452 0003296 164.5189 237.1413  1.00271994 64388
ASTRA 1M                
1 33436U 08057A   26116.49779318  .00000109  00000+0  00000+0 0  9991
2 33436   0.1644  79.4155 0003831   1.9345 331.7599  1.00274321 45213
FENGYUN 2D DEB          
1 33458U 06053D   26115.83308595 -.00000006  00000+0  00000+0 0  9998
2 33458  11.5723  37.6034 0040559 359.5017 180.5614  1.00263124 64857
EUTELSAT HOTBIRD 13C    
1 33459U 08065A   26116.48401314 -.00000292  00000+0  00000+0 0  9996
2 33459   2.8196  79.7733 0004193 320.7890 297.8849  1.00270120 46824
EXPRESS-AM44            
1 33595U 09007A   26116.42047838 -.00000099  00000+0  00000+0 0  9990
2 33595   3.3326  79.0000 0004130 314.0913 321.7099  1.00271432 51769
NSS-9                   
1 33749U 09008A   26116.48933715  .00000060  00000+0  00000+0 0  9993
2 33749   1.1299  83.0759 0002169 295.2143 195.4212  1.00271706 63003
TELSTAR 11N             
1 34111U 09009A   26116.41527836  .00000000  00000+0  00000+0 0  9998
2 34111   0.0125 230.8012 0002532 151.8097 303.7523  1.00267929 45726
RADUGA-1 8              
1 34264U 09010A   26115.06650022 -.00000157  00000+0  00000+0 0  9997
2 34264  12.0130  42.2069 0010881  21.9446 165.3650  0.99831119 62640
SL-12 R/B(2)            
1 34265U 09010B   26116.45824899 -.00000018  00000+0  00000+0 0  9993
2 34265  12.0084  42.1332 0003669 306.1123 277.8559  0.99994607 62679
WGS F2 (USA 204)        
1 34713U 09017A   26116.50541990  .00000000  00000+0  00000+0 0  9992
2 34713   0.0124 247.2943 0001247 336.8001 229.8639  1.00270752 45106
SES-7 (PROTOSTAR 2)     
1 34941U 09027A   26116.51547325 -.00000357  00000+0  00000+0 0  9991
2 34941   0.0969  79.3708 0001723 246.9708 181.9970  1.00270490 62118
